start=new Date('2023-01-09T00:00:00.000Z').valueOf();
sats=[{"SITE":"AFETR","APOAPSIS":"547.918","NORAD_CAT_ID":"48129","OBJECT_TYPE":"PAYLOAD","MEAN_MOTION_DOT":"0.00011412","ARG_OF_PERICENTER":"81.4236","MEAN_MOTION":"15.06411975","COUNTRY_CODE":"US","REF_FRAME":"TEME","PERIAPSIS":"546.436","TIME_SYSTEM":"UTC","BSTAR":"0.00078349000000","OBJECT_NAME":"STARLINK-2471","GP_ID":"222465367","FILE":"3736235","TLE_LINE2":"2 48129  53.0545 321.6343 0001070  81.4236 278.6874 15.06411975 98167","LAUNCH_DATE":"2021-04-07","ECCENTRICITY":"0.00010700","PERIOD":"95.591","SEMIMAJOR_AXIS":"6925.312","DECAY_DATE":null,"CLASSIFICATION_TYPE":"U","MEAN_ELEMENT_THEORY":"SGP4","MEAN_MOTION_DDOT":"0.0000000000000","CENTER_NAME":"EARTH","RCS_SIZE":"LARGE","RA_OF_ASC_NODE":"321.6343","INCLINATION":"53.0545","REV_AT_EPOCH":"9816","EPOCH":"2023-01-08T13:44:47.884416","EPHEMERIS_TYPE":"0","MEAN_ANOMALY":"278.6874","TLE_LINE1":"1 48129U 21027AP  23008.57277644  .00011412  00000-0  78349-3 0  9994","ELEMENT_SET_NO":"999","OBJECT_ID":"2021-027AP"},{"MEAN_ELEMENT_THEORY":"SGP4","CLASSIFICATION_TYPE":"U","SEMIMAJOR_AXIS":"6925.355","DECAY_DATE":null,"RA_OF_ASC_NODE":"327.5778","RCS_SIZE":"LARGE","CENTER_NAME":"EARTH","MEAN_MOTION_DDOT":"0.0000000000000","OBJECT_NAME":"STARLINK-2472","GP_ID":"222465618","FILE":"3736235","BSTAR":"0.00015604000000","ECCENTRICITY":"0.00017550","PERIOD":"95.592","LAUNCH_DATE":"2021-04-07","TLE_LINE2":"2 48130  53.0538 327.5778 0001755  46.0473 314.0661 15.06398033 98065","MEAN_ANOMALY":"314.0661","EPHEMERIS_TYPE":"0","ELEMENT_SET_NO":"999","OBJECT_ID":"2021-027AQ","TLE_LINE1":"1 48130U 21027AQ  23008.36310002  .00002043  00000-0  15604-3 0  9994","REV_AT_EPOCH":"9806","INCLINATION":"53.0538","EPOCH":"2023-01-08T08:42:51.841728","MEAN_MOTION":"15.06398033","SITE":"AFETR","ARG_OF_PERICENTER":"46.0473","OBJECT_TYPE":"PAYLOAD","MEAN_MOTION_DOT":"0.00002043","NORAD_CAT_ID":"48130","APOAPSIS":"548.435","REF_FRAME":"TEME","TIME_SYSTEM":"UTC","PERIAPSIS":"546.004","COUNTRY_CODE":"US"},{"CLASSIFICATION_TYPE":"U","MEAN_ELEMENT_THEORY":"SGP4","DECAY_DATE":null,"SEMIMAJOR_AXIS":"6925.327","RCS_SIZE":"LARGE","RA_OF_ASC_NODE":"300.6902","MEAN_MOTION_DDOT":"0.0000000000000","CENTER_NAME":"EARTH","GP_ID":"222497851","OBJECT_NAME":"STARLINK-2473","FILE":"3736460","BSTAR":"0.00071080000000","PERIOD":"95.592","ECCENTRICITY":"0.00022360","TLE_LINE2":"2 48131  53.0550 300.6902 0002236  36.5801 323.5340 15.06406987 98477","LAUNCH_DATE":"2021-04-07","MEAN_ANOMALY":"323.5340","EPHEMERIS_TYPE":"0","ELEMENT_SET_NO":"999","OBJECT_ID":"2021-027AR","TLE_LINE1":"1 48131U 21027AR  23008.78102535  .00010324  00000-0  71080-3 0  9992","REV_AT_EPOCH":"9847","INCLINATION":"53.0550","EPOCH":"2023-01-08T18:44:40.590240","MEAN_MOTION":"15.06406987","SITE":"AFETR","ARG_OF_PERICENTER":"36.5801","OBJECT_TYPE":"PAYLOAD","MEAN_MOTION_DOT":"0.00010324","NORAD_CAT_ID":"48131","APOAPSIS":"548.741","REF_FRAME":"TEME","TIME_SYSTEM":"UTC","PERIAPSIS":"545.644","COUNTRY_CODE":"US"},{"ELEMENT_SET_NO":"999","OBJECT_ID":"2021-027AS","TLE_LINE1":"1 48132U 21027AS  23008.89343853  .00006343  00000-0  44430-3 0  9990","MEAN_ANOMALY":"297.3524","EPHEMERIS_TYPE":"0","EPOCH":"2023-01-08T21:26:33.088992","INCLINATION":"53.0551","REV_AT_EPOCH":"9820","CENTER_NAME":"EARTH","MEAN_MOTION_DDOT":"0.0000000000000","RA_OF_ASC_NODE":"320.1895","RCS_SIZE":"LARGE","CLASSIFICATION_TYPE":"U","MEAN_ELEMENT_THEORY":"SGP4","SEMIMAJOR_AXIS":"6925.335","DECAY_DATE":null,"LAUNCH_DATE":"2021-04-07","TLE_LINE2":"2 48132  53.0551 320.1895 0002181  62.7687 297.3524 15.06404398 98206","ECCENTRICITY":"0.00021810","PERIOD":"95.592","BSTAR":"0.00044430000000","GP_ID":"222498102","FILE":"3736460","OBJECT_NAME":"STARLINK-2474","PERIAPSIS":"545.690","TIME_SYSTEM":"UTC","REF_FRAME":"TEME","COUNTRY_CODE":"US","MEAN_MOTION":"15.06404398","OBJECT_TYPE":"PAYLOAD","MEAN_MOTION_DOT":"0.00006343","ARG_OF_PERICENTER":"62.7687","APOAPSIS":"548.710","NORAD_CAT_ID":"48132","SITE":"AFETR"},{"BSTAR":"0.00005070600000","GP_ID":"222496850","OBJECT_NAME":"STARLINK-2475","FILE":"3736460","TLE_LINE2":"2 48133  53.0546 320.2040 0001821  57.2529 302.8635 15.06392919 98219","LAUNCH_DATE":"2021-04-07","ECCENTRICITY":"0.00018210","PERIOD":"95.593","DECAY_DATE":null,"SEMIMAJOR_AXIS":"6925.370","CLASSIFICATION_TYPE":"U","MEAN_ELEMENT_THEORY":"SGP4","CENTER_NAME":"EARTH","MEAN_MOTION_DDOT":"0.0000000000000","RCS_SIZE":"LARGE","RA_OF_ASC_NODE":"320.2040","INCLINATION":"53.0546","REV_AT_EPOCH":"9821","EPOCH":"2023-01-08T21:21:15.228576","EPHEMERIS_TYPE":"0","MEAN_ANOMALY":"302.8635","TLE_LINE1":"1 48133U 21027AT  23008.88975959  .00000474  00000-0  50706-4 0  9991","ELEMENT_SET_NO":"999","OBJECT_ID":"2021-027AT","SITE":"AFETR","APOAPSIS":"548.496","NORAD_CAT_ID":"48133","MEAN_MOTION_DOT":"0.00000474","OBJECT_TYPE":"PAYLOAD","ARG_OF_PERICENTER":"57.2529","MEAN_MOTION":"15.06392919","COUNTRY_CODE":"US","REF_FRAME":"TEME","PERIAPSIS":"545.974","TIME_SYSTEM":"UTC"},{"TIME_SYSTEM":"UTC","PERIAPSIS":"545.901","REF_FRAME":"TEME","COUNTRY_CODE":"US","MEAN_MOTION":"15.06401737","ARG_OF_PERICENTER":"47.8067","OBJECT_TYPE":"PAYLOAD","MEAN_MOTION_DOT":"0.00003783","NORAD_CAT_ID":"48134","APOAPSIS":"548.515","SITE":"AFETR","ELEMENT_SET_NO":"999","OBJECT_ID":"2021-027AU","TLE_LINE1":"1 48134U 21027AU  23008.87501266  .00003783  00000-0  27275-3 0  9997","MEAN_ANOMALY":"312.3082","EPHEMERIS_TYPE":"0","EPOCH":"2023-01-08T21:00:01.093824","REV_AT_EPOCH":"9820","INCLINATION":"53.0548","RCS_SIZE":"LARGE","RA_OF_ASC_NODE":"320.2793","CENTER_NAME":"EARTH","MEAN_MOTION_DDOT":"0.0000000000000","MEAN_ELEMENT_THEORY":"SGP4","CLASSIFICATION_TYPE":"U","SEMIMAJOR_AXIS":"6925.343","DECAY_DATE":null,"PERIOD":"95.592","ECCENTRICITY":"0.00018870","TLE_LINE2":"2 48134  53.0548 320.2793 0001887  47.8067 312.3082 15.06401737 98201","LAUNCH_DATE":"2021-04-07","FILE":"3736460","GP_ID":"222497100","OBJECT_NAME":"STARLINK-2476","BSTAR":"0.00027275000000"},{"TLE_LINE1":"1 48135U 21027AV  23008.61104025  .00012185  00000-0  83522-3 0  9995","ELEMENT_SET_NO":"999","OBJECT_ID":"2021-027AV","EPHEMERIS_TYPE":"0","MEAN_ANOMALY":"290.0975","EPOCH":"2023-01-08T14:39:53.877600","REV_AT_EPOCH":"9809","INCLINATION":"53.0532","RCS_SIZE":"LARGE","RA_OF_ASC_NODE":"326.6289","MEAN_MOTION_DDOT":"0.0000000000000","CENTER_NAME":"EARTH","SEMIMAJOR_AXIS":"6925.312","DECAY_DATE":null,"CLASSIFICATION_TYPE":"U","MEAN_ELEMENT_THEORY":"SGP4","PERIOD":"95.591","ECCENTRICITY":"0.00016680","LAUNCH_DATE":"2021-04-07","TLE_LINE2":"2 48135  53.0532 326.6289 0001668  70.0193 290.0975 15.06411858 98095","FILE":"3736460","GP_ID":"222497352","OBJECT_NAME":"STARLINK-2478","BSTAR":"0.00083522000000","TIME_SYSTEM":"UTC","PERIAPSIS":"546.022","REF_FRAME":"TEME","COUNTRY_CODE":"US","MEAN_MOTION":"15.06411858","NORAD_CAT_ID":"48135","APOAPSIS":"548.332","ARG_OF_PERICENTER":"70.0193","OBJECT_TYPE":"PAYLOAD","MEAN_MOTION_DOT":"0.00012185","SITE":"AFETR"},{"COUNTRY_CODE":"US","REF_FRAME":"TEME","TIME_SYSTEM":"UTC","PERIAPSIS":"546.097","SITE":"AFETR","ARG_OF_PERICENTER":"59.7687","MEAN_MOTION_DOT":"0.00004594","OBJECT_TYPE":"PAYLOAD","NORAD_CAT_ID":"48136","APOAPSIS":"548.359","MEAN_MOTION":"15.06395327","REV_AT_EPOCH":"9776","INCLINATION":"53.0548","EPOCH":"2023-01-08T13:38:07.078272","MEAN_ANOMALY":"300.3464","EPHEMERIS_TYPE":"0","ELEMENT_SET_NO":"999","OBJECT_ID":"2021-027AW","TLE_LINE1":"1 48136U 21027AW  23008.56813748  .00004594  00000-0  32717-3 0  9994","FILE":"3736355","GP_ID":"222473522","OBJECT_NAME":"STARLINK-2479","BSTAR":"0.00032717000000","ECCENTRICITY":"0.00016330","PERIOD":"95.592","TLE_LINE2":"2 48136  53.0548 321.6433 0001633  59.7687 300.3464 15.06395327 97766","LAUNCH_DATE":"2021-04-07","MEAN_ELEMENT_THEORY":"SGP4","CLASSIFICATION_TYPE":"U","DECAY_DATE":null,"SEMIMAJOR_AXIS":"6925.363","RA_OF_ASC_NODE":"321.6433","RCS_SIZE":"LARGE","MEAN_MOTION_DDOT":"0.0000000000000","CENTER_NAME":"EARTH"},{"COUNTRY_CODE":"US","REF_FRAME":"TEME","TIME_SYSTEM":"UTC","PERIAPSIS":"545.889","SITE":"AFETR","NORAD_CAT_ID":"48137","APOAPSIS":"548.436","ARG_OF_PERICENTER":"83.0828","OBJECT_TYPE":"PAYLOAD","MEAN_MOTION_DOT":"0.00009350","MEAN_MOTION":"15.06416741","REV_AT_EPOCH":"9843","INCLINATION":"53.0540","EPOCH":"2023-01-08T12:38:27.077856","EPHEMERIS_TYPE":"0","MEAN_ANOMALY":"277.0370","TLE_LINE1":"1 48137U 21027AX  23008.52670229  .00009350  00000-0  64549-3 0  9999","ELEMENT_SET_NO":"999","OBJECT_ID":"2021-027AX","GP_ID":"222465368","OBJECT_NAME":"STARLINK-2480","FILE":"3736235","BSTAR":"0.00064549000000","ECCENTRICITY":"0.00018390","PERIOD":"95.591","LAUNCH_DATE":"2021-04-07","TLE_LINE2":"2 48137  53.0540 301.8149 0001839  83.0828 277.0370 15.06416741 98433","SEMIMAJOR_AXIS":"6925.297","DECAY_DATE":null,"MEAN_ELEMENT_THEORY":"SGP4","CLASSIFICATION_TYPE":"U","RCS_SIZE":"LARGE","RA_OF_ASC_NODE":"301.8149","MEAN_MOTION_DDOT":"0.0000000000000","CENTER_NAME":"EARTH"},{"MEAN_MOTION":"15.06393926","SITE":"AFETR","ARG_OF_PERICENTER":"45.7515","OBJECT_TYPE":"PAYLOAD","MEAN_MOTION_DOT":"0.00000286","NORAD_CAT_ID":"48138","APOAPSIS":"548.744","REF_FRAME":"TEME","TIME_SYSTEM":"UTC","PERIAPSIS":"545.720","COUNTRY_CODE":"US","MEAN_ELEMENT_THEORY":"SGP4","CLASSIFICATION_TYPE":"U","SEMIMAJOR_AXIS":"6925.367","DECAY_DATE":null,"RA_OF_ASC_NODE":"321.7117","RCS_SIZE":"LARGE","MEAN_MOTION_DDOT":"0.0000000000000","CENTER_NAME":"EARTH","FILE":"3736355","GP_ID":"222473524","OBJECT_NAME":"STARLINK-2481","BSTAR":"0.00003811000000","ECCENTRICITY":"0.00021830","PERIOD":"95.593","TLE_LINE2":"2 48138  53.0552 321.7117 0002183  45.7515 314.3653 15.06393926 97767","LAUNCH_DATE":"2021-04-07","MEAN_ANOMALY":"314.3653","EPHEMERIS_TYPE":"0","ELEMENT_SET_NO":"999","OBJECT_ID":"2021-027AY","TLE_LINE1":"1 48138U 21027AY  23008.55433242  .00000286  00000-0  38110-4 0  9990","REV_AT_EPOCH":"9776","INCLINATION":"53.0552","EPOCH":"2023-01-08T13:18:14.321088"}];
